"Name","Latitude","Longitude","Address"
"Penn State Health Milton S. Hershey Medical Center",40.2637366604909,-76.675881555067,"Penn State Hershey, US 322, Hershey West End, Hershey, Dauphin County, Pennsylvania, 17036, United States"
"UPMC Passavant – McCandless",40.573653217065,-80.012780627454,"UPMC Passavant – McCandless, 9100, Babcock Boulevard, Pittsburgh, Allegheny County, Pennsylvania, 15237, United States"
"Corporal Michael J. Crescenz Veterans Affairs Medical Center",39.9474505505435,-75.1990062904107,"VA Medical Center Driveway, Philadelphia, Philadelphia County, Pennsylvania, 19104, United States"
"Hospital",40.0873682442951,-75.4074191516536,"North Gulph Road, King of Prussia Town Center, King of Prussia, Upper Merion Township, Montgomery County, Pennsylvania, 19087, United States"
"UPMC Jameson",41.0134932862723,-80.353328873861,"UPMC Jameson, 1211, Wilmington Road, North Hill Historic District, New Castle, Lawrence County, Pennsylvania, 16105, United States"
"Evangelical Community Hospital",40.9792609989157,-76.8882374430113,"Evangelical Community Hospital, 1, Hospital Drive, Lewisburg, Union County, Pennsylvania, 17837, United States"
"Geisinger Bloomsburg Hospital",41.0093172773461,-76.4526340981202,"Geisinger Bloomsburg Hospital, 549, Fair Street, Bloomsburg, Columbia County, Pennsylvania, 17815, United States"
"UPMC Shadyside",40.4551725068456,-79.9415530779249,"Cypress Street, Bloomfield, Pittsburgh, Allegheny County, Pennsylvania, 15224, United States"
"Allegheny General Hospital",40.4570158608283,-80.0033473236655,"Allegheny General Hospital, 320, East North Avenue, Central Northside, Pittsburgh, Allegheny County, Pennsylvania, 15212, United States"
"Riddle Hospital",39.9126414109604,-75.4308784346034,"Riddle Hospital, 1068, Baltimore Pike, Lima, Media, Delaware County, Pennsylvania, 19063, United States"
"Lehigh Valley Hospital - 17th Street Campus",40.6021269652567,-75.4945651855312,"Lehigh Valley Hospital - 17th Street Campus, 1627, West Chew Street, West End, Allentown, Lehigh County, Pennsylvania, 18102, United States"
"WellSpan Ephrata Community Hospital",40.1873467128119,-76.1818048736265,"WellSpan Ephrata Community Hospital, 169, Martin Avenue, Ephrata, Lancaster County, Pennsylvania, 17522, United States"
"Geisinger Community Medical Center",41.4004191080327,-75.6466953345904,"Geisinger Community Medical Center, 1800, Mulberry Street, The Hill Section, Scranton, Lackawanna County, Pennsylvania, 18510, United States"
"Springfield Hospital",39.9223037301475,-75.3498719846111,"Springfield Hospital, 190, West Sproul Road, Springfield Township, Delaware County, Pennsylvania, 19064, United States"
"Hospital of the University of Pennsylvania",39.9498884598304,-75.1942761105818,"Hospital of the University of Pennsylvania, 3400, Spruce Street, University City, Philadelphia, Philadelphia County, Pennsylvania, 19104, United States"
"Children's Hospital of Philadelphia",39.9475948937591,-75.1945433914807,"Children's Hospital of Philadelphia, 3401, Civic Center Boulevard, University City, Philadelphia, Philadelphia County, Pennsylvania, 19104, United States"
"Lankenau Medical Center",39.9880955583985,-75.2626589261668,"Lankenau Medical Center, 100, East Lancaster Avenue, Wynnewood, Lower Merion Township, Montgomery County, Pennsylvania, 19096, United States"
"Bryn Mawr Hospital",40.0192490274827,-75.3209723682677,"Bryn Mawr Hospital, 130, South Bryn Mawr Avenue, Lower Merion Township, Montgomery County, Pennsylvania, 19010, United States"
"Bradford Regional Medical Center",41.9607932247808,-78.6591661133706,"Bradford Regional Medical Center, 116, Interstate Parkway, Bradford, McKean County, Pennsylvania, 16701, United States"
"Shriners Hospitals for Children",40.0067181166406,-75.1510806351452,"Shriners Hospitals for Children, 3551, North Broad Street, Nicetown, Philadelphia, Philadelphia County, Pennsylvania, 19140, United States"
"Abington Hospital",40.1189834692289,-75.1202067479534,"Abington Hospital, 1200, Old York Road, Abington Township, Montgomery County, Pennsylvania, 19001, United States"
"Holy Redeemer Hospital",40.1103633456439,-75.0826351153511,"Holy Redeemer Hospital, 1648, Huntingdon Pike, Meadowbrook, Abington Township, Montgomery County, Pennsylvania, 19046, United States"
"Einstein Medical Center Elkins Park",40.0727371891446,-75.1055826264992,"Einstein Medical Center Elkins Park, 60, Township Line Road, Cheltenham Village, Cheltenham, Cheltenham Township, Montgomery County, Pennsylvania, 19027, United States"
"Penn State Health Children's Hospital",40.2641807169505,-76.6741653908726,"Penn State Hershey, US 322, Hershey West End, Hershey, Dauphin County, Pennsylvania, 17036, United States"
"Chester County Hospital",39.9722145352994,-75.6024197731351,"Chester County Hospital, 701, East Marshall Street, Fern Hill, West Goshen Township, Chester County, Pennsylvania, 19380, United States"
"Charles Cole Memorial Hospital",41.7723842070264,-77.9805952600253,"Charles Cole Memorial Hospital, 1001, East Second Street, Lymansville, Coudersport, Potter County, Pennsylvania, 16915, United States"
"UPMC Lititz",40.1318500726526,-76.3122161778322,"UPMC Lititz, 1500, Highlands Drive, Lititz, Lancaster County, Pennsylvania, 17543, United States"
"Integrated Health Campus",40.5835343025116,-75.5594077314307,"Integrated Health Campus, Pennsylvania Turnpike Northeast Extension, Upper Macungie Township, Lehigh County, Pennsylvania, 18106, United States"
"Suburban Community Hospital",40.1403526587961,-75.3162187106365,"Suburban Community Hospital, 2701, DeKalb Pike, The Enclave (Williamstadt), Penn Square, East Norriton Township, Montgomery County, Pennsylvania, 19401, United States"
"Lifecare Hospital of Pittsburgh",40.4469277287613,-79.8918979248845,"Lifecare Hospital of Pittsburgh, 225, Penn Avenue, Park Place, East Pittsburgh, Allegheny County, Pennsylvania, 15221, United States"
"Gastroenterology Associates",39.9116252524299,-76.7088773420479,"Gastroenterology Associates, 2690, Southfield Drive, York Township, York County, Pennsylvania, 17403, United States"
"Magee Rehabilitation Hospital",39.956806250682,-75.1653967996803,"Magee Rehabilitation Hospital, 1513, Race Street, Center City, Philadelphia, Philadelphia County, Pennsylvania, 19102, United States"
"H. John Heinz III Progressive Care Center",40.4950551770016,-79.8878348308775,"H. John Heinz III Progressive Care Center, 1010, Delafield Road, East Pittsburgh, Allegheny County, Pennsylvania, 15238, United States"
"UPMC Saint Margaret",40.4895693531938,-79.8959826779804,"UPMC Saint Margaret, 815, Freeport Road, Lincoln-Lemington-Belmar, Pittsburgh, Allegheny County, Pennsylvania, 15215, United States"
"Canonsburg Hospital",40.2461837911137,-80.1906835958698,"Canonsburg Hospital, 100, Medical Boulevard, Boon Terrace, Canonsburg, Washington County, Pennsylvania, 15317, United States"
"Reading Hospital",40.3306361111079,-75.9500860708,"Reading Hospital, 420, South 5th Avenue, West Reading, Berks County, Pennsylvania, 19611, United States"
"Doylestown Hospital",40.3063530314434,-75.1465315766256,"Doylestown Hospital, 595, West State Street, Doylestown Township, Bucks County, Pennsylvania, 18901, United States"
"Monongahela Valley Hospital",40.1814982151557,-79.9112547823781,"Monongahela Valley Hospital, 1163, Country Club Road, Wickerham Manor, Monongahela, Washington County, Pennsylvania, 15063, United States"
"UPMC Children's Hospital of Pittsburgh",40.4671591317481,-79.9533584474721,"UPMC Children's Hospital of Pittsburgh, 4401, Penn Avenue, Central Lawrenceville, Pittsburgh, Allegheny County, Pennsylvania, 15224, United States"
"West Penn Hospital",40.4611300160163,-79.9460299113822,"West Penn Hospital, 4800, Friendship Avenue, Bloomfield, Pittsburgh, Allegheny County, Pennsylvania, 15224, United States"
"UPMC Magee-Womens Hospital",40.4368916895812,-79.9608642507166,"UPMC Magee-Womens Hospital, 300, Halket Street, South Oakland, Pittsburgh, Allegheny County, Pennsylvania, 15213, United States"
"WellSpan York Hospital",39.9453226933739,-76.7181738942697,"WellSpan York Hospital, 1001, South George Street, Farquhar Estates, Spring Garden Township, York County, Pennsylvania, 17403, United States"
"Methodist Hospital",39.9211411179507,-75.1692706828882,"Methodist Hospital, 2301, South Broad Street, South Philadelphia, Philadelphia, Philadelphia County, Pennsylvania, 19145, United States"
"Penn Medicine Rittenhouse",39.9450253045556,-75.1728384286734,"Penn Medicine Rittenhouse, 1800, Lombard Street, Rittenhouse Square, Center City, Philadelphia, Philadelphia County, Pennsylvania, 19146, United States"
"Temple University Hospital - Episcopal Campus",39.9898112053785,-75.1291314721601,"Temple University Hospital - Episcopal Campus, 100, East Lehigh Avenue, Kensington, Philadelphia, Philadelphia County, Pennsylvania, 19125, United States"
"UPMC Oakland",40.4414928132319,-79.9610123103797,"UPMC Oakland, Semple Street, Oakland, Central Oakland, Pittsburgh, Allegheny County, Pennsylvania, 15213, United States"
"Kirkbride Center",39.9617485916324,-75.2180914048617,"Kirkbride Center, 111, North 49th Street, Mill Creek, Philadelphia, Philadelphia County, Pennsylvania, 19139, United States"
"Mercy Philadelphia Hospital",39.9517751214919,-75.2295516954553,"Mercy Philadelphia Hospital, 501, South 54th Street, Garden Court, Philadelphia, Philadelphia County, Pennsylvania, 19143, United States"
"Einstein Medical Center Montgomery",40.1533341587695,-75.3420789986758,"Einstein Medical Center Montgomery, 559, West Germantown Pike, East Norriton, East Norriton Township, Montgomery County, Pennsylvania, 19403, United States"
"Pennsylvania Hospital",39.9450365198956,-75.1555245116431,"Pennsylvania Hospital, 800, Spruce Street, Gayborhood, Center City, Philadelphia, Philadelphia County, Pennsylvania, 19107, United States"
"Saint Joseph's Hospital",39.9716384505733,-75.1635671518887,"Saint Joseph's Hospital, 1600, West Girard Avenue, North Central, Philadelphia, Philadelphia County, Pennsylvania, 19130, United States"
"Temple University Hospital",40.0052522197302,-75.1507857237409,"Temple University - Health Sciences Campus, West Venango Street, Chopersville, Philadelphia, Philadelphia County, Pennsylvania, 19140, United States"
"Jefferson Frankford Hospital",40.0201797218209,-75.0811356403574,"Jefferson Frankford Hospital, 4900, Frankford Avenue, Philadelphia, Philadelphia County, Pennsylvania, 19124, United States"
"Cancer Treatment Centers of America",40.0196374213181,-75.0988571021476,"Cancer Treatment Centers of America, 1331, East Wyoming Avenue, Northwood, Philadelphia, Philadelphia County, Pennsylvania, 19124, United States"
"Delaware County Memorial Hospital",39.9551209775447,-75.2824121452199,"Delaware County Memorial Hospital, 501, North Lansdowne Avenue, Beverly Hills, Upper Darby, Delaware County, Pennsylvania, 19026, United States"
"Titusville Area Hospital",41.6337705229825,-79.6798837271959,"Titusville Area Hospital, 406, West Oak Street, Titusville, Crawford County, Pennsylvania, 16354, United States"
"Wexford Health + Welness Pavillion",40.6356520367937,-80.0637181991751,"Wexford Health + Welness Pavillion, 12311, Perry Highway, Wexford, Pine Township, Allegheny County, Pennsylvania, 15090, United States"
"Penn Highlands Clearfield Campus",41.0332560531006,-78.4493846976247,"Penn Highlands Clearfield Campus, 809, Turnpike Avenue, Plymptonville, Clearfield, Clearfield County, Pennsylvania, 16830, United States"
"UPMC Pinnacle Polyclinic Campus",40.2873700456355,-76.8986473231978,"UPMC Pinnacle Polyclinic Campus, 2501, North 3rd Street, Uptown, Harrisburg, Dauphin County, Pennsylvania, 17110, United States"
"Jefferson Hospital",40.3182438121123,-79.9334612904114,"Jefferson Hospital, 565, Coal Valley Road, Jefferson Hills, Allegheny County, Pennsylvania, 15025, United States"
"Moses Taylor Hospital",41.4107203742992,-75.6506521634685,"Moses Taylor Hospital, 700, Quincy Avenue, The Hill Section, Scranton, Lackawanna County, Pennsylvania, 18510, United States"
"Paoli Hospital",40.0441066293342,-75.5016324892142,"Paoli Hospital, 255, West Lancaster Avenue, Knickerbocker, Willistown Township, Chester County, Pennsylvania, 19301, United States"
"Phoenixville Hospital",40.1233310381388,-75.5150580075362,"Phoenixville Hospital, 140, Nutt Road, Phoenixville, Chester County, Pennsylvania, 19460, United States"
"Good Samaritan Hospital",40.3362886565586,-76.4165722261184,"Good Samaritan Hospital, 252, South 4th Street, Lebanon, Lebanon County, Pennsylvania, 17042, United States"
"Pottstown Hospital",40.2423811246618,-75.6128286190404,"Armand Hammer Boulevard, Pottstown, Montgomery County, Pennsylvania, 19464, United States"
"Saint Luke's University Hospital - Bethlehem Campus",40.6094092191244,-75.3933490913346,"Saint Luke's University Hospital - Bethlehem Campus, 801, Ostrum Street, Bethlehem, Lehigh County, Pennsylvania, 18015, United States"
"Saint Luke's Hospital Quakertown Campus",40.4386804896809,-75.3488667336067,"Saint Luke's Hospital Quakertown Campus, 1021, Park Avenue, Quakertown, Bucks County, Pennsylvania, 18951, United States"
"Grand View Health",40.3626279550065,-75.3270817229105,"Grand View Health, 700, Lawn Avenue, Sellersville, Bucks County, Pennsylvania, 18960, United States"
"Chestnut Hill Hospital",40.0794911571959,-75.2120990216566,"Chestnut Hill Hospital, 8835, Germantown Avenue, Highland, Chestnut Hill, Philadelphia, Philadelphia County, Pennsylvania, 19118, United States"
"Jefferson Torresdale Hospital",40.0712270168357,-74.9830446644642,"Jefferson Torresdale Hospital, 10800, Knights Road, Chestnut Wood Village, Philadelphia, Philadelphia County, Pennsylvania, 19114, United States"
"Nazareth Hospital",40.0596080693032,-75.0404538135732,"Poquessing Avenue, Pennypack Park, Philadelphia, Philadelphia County, Pennsylvania, 19152, United States"
"UPMC East",40.4366744994389,-79.760034599961,"2775, Mosside Boulevard, Monroeville, Allegheny County, Pennsylvania, 15146, United States"
"Forbes Hospital",40.4291104397561,-79.7480461333782,"Forbes Hospital, 2570, Haymaker Road, Monroe Heights, Monroeville, Allegheny County, Pennsylvania, 15146, United States"
"Saint Clair Hospital",40.3783518643577,-80.0675047375797,"Saint Clair Hospital, 1000, Bower Hill Road, Cedarhurst Manor, Pittsburgh, Allegheny County, Pennsylvania, 15243, United States"
"Einstein Medical Center Philadelphia",40.0368999745089,-75.1421786145742,"Einstein Medical Center Philadelphia, 5501, Old York Road, Tabor, Philadelphia, Philadelphia County, Pennsylvania, 19141, United States"
"WellSpan Gettysburg Hospital",39.8244464088774,-77.2349864677819,"WellSpan Gettysburg Hospital, 147, Gettys Street, Gettysburg, Adams County, Pennsylvania, 17325, United States"
"Lehigh Valley Hospital–Schuylkill E. Norwegian Street",40.6910026190142,-76.1883346622011,"Lehigh Valley Hospital–Schuylkill E. Norwegian Street, 700, East Norwegian Street, Bunker Hill, Pottsville, Schuylkill County, Pennsylvania, 17901, United States"
"Community General Osteopathic Hospital",40.2844916775745,-76.8169759116768,"Community General Osteopathic Hospital, 4300, Londonderry Road, Colonial Park, Harrisburg, Dauphin County, Pennsylvania, 17109, United States"
"UPMC Altoona",40.5223084612985,-78.3984503348893,"UPMC Altoona, 620, Howard Avenue, Fairview, Altoona, Blair County, Pennsylvania, 16601, United States"
"Clarks Summit State Hospital",41.481569209742,-75.7364037567346,"Clarks Summit State Hospital, 1451, Hillside Drive, Clarks Summit, Lackawanna County, Pennsylvania, 18411, United States"
"UPMC Mercy",40.4362558993004,-79.9856565412293,"UPMC Mercy, 1400, Locust Street, Bluff, Pittsburgh, Allegheny County, Pennsylvania, 15219, United States"
"Geisinger Medical Cente",40.9681855980798,-76.6044868137532,"Geisinger Medical Cente, 100, North Academy Avenue, Danville, Montour County, Pennsylvania, 17822, United States"
"Chambersburg Hospital",39.9343144590792,-77.6462609420971,"Chambersburg Hospital, 112, North 7th Street, Chambersburg, Franklin County, Pennsylvania, 17201, United States"
"Williamsport Regional Medical Center",41.2469263814184,-77.0151911663809,"Williamsport Regional Medical Center, 700, High Street, Park Avenue, Williamsport, Lycoming County, Pennsylvania, 17701, United States"
"Allied Rehab Hospital",41.4474695975444,-75.6770982975553,"Allied Rehab Hospital, 475, Morgan Highway, Scranton, Lackawanna County, Pennsylvania, 18508, United States"
"Geisinger South Wilkes-Barre",41.2371625313099,-75.9081656675376,"Geisinger South Wilkes-Barre, 25, Church Street, Goose Island, Wilkes-Barre, Luzerne County, Pennsylvania, 18765, United States"
"Regional Hospital of Scranton",41.4128931708236,-75.6535754566203,"Regional Hospital of Scranton, 746, Jefferson Avenue, The Hill Section, Scranton, Lackawanna County, Pennsylvania, 18510, United States"
"Washington Hospital",40.1836436676504,-80.2462465137078,"Washington Hospital, 155, Wilson Avenue, Tylerdale, Washington, Washington County, Pennsylvania, 15301, United States"
"Geisinger Wyoming Valley Medical Center",41.2576925239534,-75.8075501911515,"Geisinger Wyoming Valley Medical Center, 1000, East Mountain Boulevard, Fox Hill, Wilkes-Barre Township, Luzerne County, Pennsylvania, 18711, United States"
"Wayne Memorial Hospital",41.5760394005214,-75.2601167415799,"Wayne Memorial Hospital, 601, Park Street, Honesdale, Wayne County, Pennsylvania, 18431, United States"
"Warren General Hospital",41.8430253661957,-79.1551935325045,"Warren General Hospital, 2, Palm Avenue, Downtown Warren, Warren, Warren County, Pennsylvania, 16365, United States"
"South Mountain Restoration Center",39.8462089341729,-77.4928681127239,"South Mountain Restoration Center, Samuel Dixon Drive, South Mountain, Quincy Township, Franklin County, Pennsylvania, 17222, United States"
"Meadville Medical Center",41.6417594755587,-80.1455868538007,"Meadville Medical Center, 751, Liberty Street, Meadville, Crawford County, Pennsylvania, 16335, United States"
"UPMC Northwest Hospital",41.361357345621,-79.7002996004709,"UPMC Northwest Hospital, 100, Fairfield Drive, Cranberry, Cranberry Township, Venango County, Pennsylvania, 16346, United States"
"Clarion Hospital",41.1915242022764,-79.3984055116951,"Clarion Hospital, 1, Hospital Drive, Monroe Township, Clarion County, Pennsylvania, 16214, United States"
"Penn Highlands Elk",41.4262116373962,-78.5788052293871,"Penn Highlands Elk, 763, Johnsonburg Road, Saint Marys, Elk County, Pennsylvania, 15857, United States"
"Penn Highlands DuBois",41.1142462194638,-78.776529297684,"Penn Highlands DuBois, 100, Hospital Avenue, DuBois, Clearfield County, Pennsylvania, 15801, United States"
"Soldiers + Sailors Memorial Hospital",41.7450819317803,-77.300541015622,"Soldiers + Sailors Memorial Hospital, 32, Central Avenue, Wellsboro, Tioga County, Pennsylvania, 16901, United States"
"Guthrie Troy Community Hospital",41.7932377912991,-76.7943126650314,"Guthrie Troy Community Hospital, 275, Guthrie Drive, Troy Township, Bradford County, Pennsylvania, 16947, United States"
"Guthrie Robert Packer Hospital",41.9808433016308,-76.520904063565,"Guthrie Robert Packer Hospital, 1, Guthrie Square, Sayre, Bradford County, Pennsylvania, 18840, United States"
"Endless Mountains Health Systems",41.8375756857416,-75.8365642132258,"Endless Mountains Health Systems, 100, Hospital Drive, Montrose, Susquehanna County, Pennsylvania, 18801, United States"
"Barnes-Kasson Hospital",41.9468098994256,-75.592620612962,"Barnes-Kasson Hospital, 2782, Turnpike Street, Susquehanna Depot, Susquehanna County, Pennsylvania, 18847, United States"
"Wilkes-Barre General Hospital",41.2582504813627,-75.8668844291994,"Wilkes-Barre General Hospital, 575, North River Street, North End, Wilkes-Barre, Luzerne County, Pennsylvania, 18764, United States"
"Wyoming Valley Behavioral Hospital",41.2700287633097,-75.8896406488926,"Wyoming Valley Behavioral Hospital, 562, Wyoming Avenue, Kingston, Luzerne County, Pennsylvania, 18704, United States"
"Muncy Valley Hospital",41.2098350887606,-76.7748777091777,"Muncy Valley Hospital, 215, East Water Street, Muncy Creek Township, Lycoming County, Pennsylvania, 17756, United States"
"Divine Providence Hospital",41.2602403210618,-76.9839586583308,"UPMC Williamsport, Divine Providence Campus, 1100, Grampian Boulevard, Williamsport, Lycoming County, Pennsylvania, 17701, United States"
"Geisinger Jersey Shore Hospital",41.2023425755569,-77.2676336431475,"Kerr Avenue, Jersey Shore, Lycoming County, Pennsylvania, 17740, United States"
"UPMC Lock Haven",41.1319956876003,-77.4692853663392,"UPMC Lock Haven, 24, Cree Drive, Lock Haven, Clinton County, Pennsylvania, 17745, United States"
"UPMC Horizon - Shenango Valley",41.2107582114126,-80.4694915597318,"UPMC Horizon - Shenango Valley, 2200, Memorial Drive, Farrell, Mercer County, Pennsylvania, 16121, United States"
"Sharon Regional Health System",41.2322077065146,-80.4963269670637,"Sharon Regional Health System, 740, East State Street, Sharon, Mercer County, Pennsylvania, 16146, United States"
"Geisinger-Lewistown Hospital",40.617950459291,-77.5675835998391,"Geisinger-Lewistown Hospital, 400, Highland Avenue, Lewistown, Mifflin County, Pennsylvania, 17044, United States"
"AHN Grove City",41.1710319067064,-80.0851836499007,"AHN Grove City, 631, North Broad Street, Broad Acres, Grove City, Mercer County, Pennsylvania, 16127, United States"
"Ellwood City Hospital",40.8695673378231,-80.2755192140175,"Ellwood City Hospital, 724, Pershing Street, Ellwood City, Lawrence County, Pennsylvania, 16057, United States"
"Heritage Valley Health System",40.7117353420231,-80.3212803315064,"Heritage Valley Health System, 1000, Dutch Ridge Road, Brighton Township, Beaver County, Pennsylvania, 15009, United States"
"VA Butler Healthcare",40.8885979400169,-79.9439353836371,"VA Butler Healthcare, 353, North Duffy Road, Center Township, Butler County, Pennsylvania, 16001, United States"
"Butler Memorial Hospital",40.8668847039007,-79.8807263593887,"Butler Memorial Hospital, 1, Hospital Way, North Butler, Butler Township, Butler County, Pennsylvania, 16001, United States"
"Armstrong County Memorial Hospital",40.8089413686561,-79.5620878672336,"Armstrong County Memorial Hospital, 1, Nolte Drive, West Kittanning, Armstrong County, Pennsylvania, 16201, United States"
"UPMC Passavant – Cranberry",40.683052389064,-80.0980917475799,"UPMC Passavant – Cranberry, 1, Saint Francis Way, Criders Corners, Cranberry Township, Butler County, Pennsylvania, 16066, United States"
"Heritage Valley Sewickley",40.5427864913533,-80.1781330228831,"Heritage Valley Sewickley, 720, Blackburn Road, Sewickley, Allegheny County, Pennsylvania, 15143, United States"
"Ohio Valley Hospital",40.472526869951,-80.0909223495164,"Ohio Valley Hospital, 25, Heckel Road, Kennedy Township, Allegheny County, Pennsylvania, 15136, United States"
"Allegheny Valley Hospital",40.618775812115,-79.7368188623657,"Allegheny Valley Hospital, 1301, Carlisle Street, Natrona Heights, Harrison Township, Allegheny County, Pennsylvania, 15065, United States"
"The Children's Institute",40.4429690425374,-79.9195283762676,"The Children's Institute, 1405, Shady Avenue, Squirrel Hill, Squirrel Hill North, Pittsburgh, Allegheny County, Pennsylvania, 15217, United States"
"VA Pittsburgh Healthcare System - University Drive",40.4469285900077,-79.9619646493034,"VA Pittsburgh Healthcare System - University Drive, University Drive, Schenley Farms Historic District, Terrace Village, Pittsburgh, Allegheny County, Pennsylvania, 15240, United States"
"Washington Health System Greene",39.9006892469622,-80.1735187729071,"Washington Health System Greene, 350, Bonar Avenue, Morrisville, Waynesburg, Greene County, Pennsylvania, 17370, United States"
"Uniontown Hospital",39.9012834651107,-79.738933951803,"Uniontown Hospital, 500, West Berkeley Street, Uniontown, Fayette County, Pennsylvania, 15401, United States"
"Excela Frick Hospital",40.1452127395436,-79.5494586717711,"Excela Frick Hospital, 508, South Church Street, Mount Pleasant, Westmoreland County, Pennsylvania, 15666, United States"
"Excela Westmoreland Hospital",40.3007299460418,-79.555231288549,"Excela Westmoreland Hospital, 532, West Pittsburgh Street, Ludwick, Greensburg, Westmoreland County, Pennsylvania, 15601, United States"
"Torrance State Hospital",40.4176673732187,-79.2378818268568,"Torrance State Hospital, 121, Longview Drive, Derry Township, Westmoreland County, Pennsylvania, 15779, United States"
"Conemaugh Memorial Medical Center",40.3059609697369,-78.9187579084158,"Conemaugh Memorial Medical Center, 1086, Franklin Street, Johnstown, Cambria County, Pennsylvania, 15905, United States"
"Chan Soon-Shiong Medical Center at Windber",40.2427757024051,-78.8367045039153,"Chan Soon-Shiong Medical Center at Windber, 600, Somerset Avenue, Windber, Somerset County, Pennsylvania, 15963, United States"
"UPMC McKeesport Hospital",40.3511668262979,-79.8493324621519,"UPMC McKeesport Hospital, 1500, 5th Avenue, McKeesport, Allegheny County, Pennsylvania, 15132, United States"
"Excela Health Latrobe Hospital",40.3206781940008,-79.3939326914762,"Excela Health Latrobe Hospital, 1, Taft Street, Latrobe, Westmoreland County, Pennsylvania, 15650, United States"
"Somerset Hospital",40.0067968931109,-79.0772012467136,"Somerset Hospital, 225, South Center Avenue, Somerset, Somerset County, Pennsylvania, 15501, United States"
"Conemaugh Meyersdale Medical Center",39.80907603309,-79.0249656245511,"Conemaugh Meyersdale Medical Center, 200, Hospital Drive, Meyersdale, Somerset County, Pennsylvania, 15552, United States"
"UPMC Bedford",40.0254279306675,-78.4328181093377,"UPMC Bedford, 10455, Lincoln Highway, Penn Wood, Everett, Bedford County, Pennsylvania, 15537, United States"
"Indiana Regional Medical Center",40.6075509998114,-79.15628820703,"Indiana Regional Medical Center, 835, Hospital Road, Ben Avon, White Township, Indiana County, Pennsylvania, 15701, United States"
"J.C. Blair Memorial Hospital",40.4939127409433,-78.0108622725231,"14th Street, Huntingdon, Huntingdon County, Pennsylvania, 16652, United States"
"Conemaugh Nason Medical Center",40.3388882878955,-78.3885531490783,"Conemaugh Nason Medical Center, 105, Nason Drive, Roaring Spring, Blair County, Pennsylvania, 16673, United States"
"Tyrone Regional Health Network",40.675036620429,-78.2516966356964,"Tyrone Regional Health Network, 187, Hospital Drive, Tyrone, Blair County, Pennsylvania, 16686, United States"
"Mount Nittany Medical Center",40.8188143481966,-77.8424018004153,"Mount Nittany Medical Center, Hospital Drive, College Township, Centre County, Pennsylvania, 16802, United States"
"Wellspan",39.751511277768,-77.5684534603567,"Wellspan, 501, East Main Street, Waynesboro, Franklin County, Pennsylvania, 17268, United States"
"UPMC Pinnacle Carlisle",40.1830508151823,-77.2234201281652,"UPMC Pinnacle Carlisle, 361, Alexander Spring Road, Carlisle, Cumberland County, Pennsylvania, 17030, United States"
"UPMC Susquehanna Sunbury",40.8617519329721,-76.7777453064033,"UPMC Susquehanna Sunbury, 350, North 11th Street, Sunbury, Northumberland County, Pennsylvania, 17801, United States"
"Geisinger Shamokin Area Community Hospital",40.806033560836,-76.5705258126257,"Geisinger Shamokin Area Community Hospital, 4200, Hospital Road, Uniontown, Coal Township, Northumberland County, Pennsylvania, 17866, United States"
"Danville State Hospital",40.9487165264331,-76.5958744695484,"Danville State Hospital, 200, State Hospital Drive, Danville, Montour County, Pennsylvania, 17821, United States"
"Berwick Hospital Center",41.0713947674434,-76.2299876208816,"Berwick Hospital Center, 701, East 16th Street, Berwick, Columbia County, Pennsylvania, 18603, United States"
"Lehigh Valley Hospital-Hazleton",40.9491927760065,-75.9642136897564,"Lehigh Valley Hospital-Hazleton, 700, East Broad Street, Stacie Manor, Hazleton Station, Hazleton, Luzerne County, Pennsylvania, 18201, United States"
"Saint Luke's Hospital - Miners Campus",40.8210487212165,-75.9143306693932,"Saint Luke's Hospital - Miners Campus, 360, West Ruddle Street, Coaldale, Schuylkill County, Pennsylvania, 18218, United States"
"Lehigh Valley Hospital–Schuylkill South Jackson Street",40.6838605620328,-76.1885111100611,"420, South Jackson Street, Pottsville, Schuylkill County, Pennsylvania, 17901, United States"
"Saint Luke's Hospital - Monroe Campus",40.9977331862447,-75.2602601045393,"Saint Luke's Hospital - Monroe Campus, 100, Saint Lukes Lane, Stroudsburg, Monroe County, Pennsylvania, 18360, United States"
"Hospital",40.9925085070716,-75.1747822678185,"Lehigh Valley Hospital-Pocono, 206, East Brown Street, East Stroudsburg, Monroe County, Pennsylvania, 18301, United States"
"Easton Hospital",40.6871055551249,-75.2427967140303,"Easton Hospital, 250, South 21st Street, West Easton, Northampton County, Pennsylvania, 18042, United States"
"Saint Luke's Anderson Campus",40.6486171131854,-75.2889564822561,"Saint Luke's Anderson Campus, 1872, Saint Luke's Boulevard, Mount Hope, West Easton, Northampton County, Pennsylvania, 18045, United States"
"Lehigh Valley Hospital Muhlenberg",40.644518339928,-75.4086332596693,"Lehigh Valley Hospital Muhlenberg, 2545, Schoenersville Road, West Bethlehem, Bethlehem, Lehigh County, Pennsylvania, 18017, United States"
"Hamburg Center",40.5643512627751,-75.9689431512478,"Hamburg Center, 3560, Old US Highway 22, Edenburg, Hamburg, Berks County, Pennsylvania, 19526, United States"
"UPMC Memorial",39.9812526621699,-76.7674248402592,"UPMC Memorial, 1701, Innovation Drive, Fairway, Shiloh, West Manchester Township, York County, Pennsylvania, 17408, United States"
"HealthSouth Rehabilitation Hospital",39.9806284643265,-76.7812607889032,"HealthSouth Rehabilitation Hospital, 1850, Normandie Drive, Barrington Place, Shiloh, West Manchester Township, York County, Pennsylvania, 17408, United States"
"UPMC Pinnacle West Shore Hospital",40.283783581842,-76.9749630740582,"Pinnacle Health Outpatient Laboratory, 2015, Technology Parkway, Cumberland Technology Park, Mechanicsburg, Cumberland County, Pennsylvania, 17050, United States"
"UPMC Harrisburg",40.2576908696798,-76.8797438751158,"UPMC Harrisburg, 111, South Front Street, SoMa, Harrisburg, Dauphin County, Pennsylvania, 17101, United States"
"WellSpan Philhaven",40.2683832900016,-76.4641258282232,"WellSpan Philhaven, 283, Butler Road, Mount Gretna, Lebanon County, Pennsylvania, 17064, United States"
"Lebanon VA Medical Center",40.3178611828313,-76.3968072323216,"Lebanon VA Medical Center, 1700, South Lincoln Avenue, Edisonville, South Lebanon Township, Lebanon County, Pennsylvania, 17042, United States"
"Lancaster General Women's & Babies Hospital",40.0648673914905,-76.3507650527941,"Penn Medicine Lancaster General Health, 2100, Harrisburg Pike, McGovernsville, Rohrerstown, East Hempfield Township, Lancaster County, Pennsylvania, 17604, United States"
"Lancaster Rehabilitation Hospital",40.0622221836795,-76.3516972140664,"Lancaster Rehabilitation Hospital, 675, Good Drive, McGovernsville, Rohrerstown, East Hempfield Township, Lancaster County, Pennsylvania, 17601, United States"
"Lancaster General Hospital",40.0471780745499,-76.3042165518486,"555, North Duke Street, Ross, Lancaster, Lancaster County, Pennsylvania, 17602, United States"
"Wernersville State Hospital",40.3300919629989,-76.1065399492315,"Wernersville State Hospital, Huntzinger Road, Wernersville, Berks County, Pennsylvania, 19565, United States"
"HealthSouth Reading Rehabilitation Hospital",40.2889253366259,-75.9251992633302,"HealthSouth Reading Rehabilitation Hospital, 1623, Morgantown Road, Reading, Berks County, Pennsylvania, 19607, United States"
"Bryn Mawr Rehab Hospital",40.0105070332729,-75.5289696223038,"Bryn Mawr Rehab Hospital, 414, Paoli Pike, Malvern, Chester County, Pennsylvania, 19355, United States"
"Brandywine Hospital",40.0097745810144,-75.7865740545176,"Brandywine Hospital, 201, Reeceville Road, Coatesville, Chester County, Pennsylvania, 19320, United States"
"Coatesville Veterans Affairs Medical Center",39.9992339111731,-75.7959637348552,"Coatesville Veterans Affairs Medical Center, 1400, Blackhorse Hill Road, Coatesville, Chester County, Pennsylvania, 19320, United States"
"Jennersville Hospital",39.8219130673802,-75.8875792360709,"Jennersville Hospital, 1015, West Baltimore Pike, Penn Township, Chester County, Pennsylvania, 19390, United States"
"Eagleville Hospital",40.1560533830703,-75.4148911136787,"Eagleville Hospital, 100, Eagleville Road, Montgomery County Prison Farm, Eagleville, Lower Providence Township, Montgomery County, Pennsylvania, 19403, United States"
"Valley Forge Medical Center and Hospital",40.1585262519252,-75.367763111627,"Valley Forge Medical Center and Hospital, 1033, West Germantown Pike, Harley Corners, Norristown, Montgomery County, Pennsylvania, 19403, United States"
"Norristown State Hospital",40.134102551882,-75.3491991735397,"Norristown State Hospital, 1001, Sterigere Street, West Norriton, Norristown, Montgomery County, Pennsylvania, 19401, United States"
"The Horsham Clinic",40.1867779331234,-75.1890181899436,"The Horsham Clinic, 722, Welsh Road, Maple Glen, Ambler, Montgomery County, Pennsylvania, 19002, United States"
"Abington – Lansdale Hospital",40.2507696554532,-75.2711093254615,"Abington – Lansdale Hospital, 100, Medical Campus Drive, Lansdale, Montgomery County, Pennsylvania, 19446, United States"
"Saint Mary Medical Center",40.2022687816387,-74.9250349337932,"Saint Mary Medical Center, 1201, Langhorne Newtown Road, Langhorne, Bucks County, Pennsylvania, 19047, United States"
"Jefferson Bucks Hospital",40.183120598201,-74.8668371961804,"Jefferson Bucks Hospital, 380, Oxford Valley Road, Oxford Valley, Langhorne Manor, Bucks County, Pennsylvania, 19047, United States"
"Lower Bucks Hospital",40.1047318826651,-74.8671342442338,"Lower Bucks Hospital, 501, Bath Road, Bath Addition, Bristol Township, Bucks County, Pennsylvania, 19007, United States"
"Kindred Hospital Philadelphia - Havertown",39.9753357405287,-75.3342117497369,"Kindred Hospital Philadelphia - Havertown, 2000, Old West Chester Pike, Adele, Haverford Township, Delaware County, Pennsylvania, 19083, United States"
"Everest Urgent Care",39.83800494539,-75.3935202449107,"Everest Urgent Care, 2600, West 9th Street, South Chester, Chester, Delaware County, Pennsylvania, 19013, United States"
"Crozer-Chester Medical Center",39.8556871108898,-75.3683158591289,"Crozer-Chester Medical Center, 1, Medical Center Boulevard, Upland, Delaware County, Pennsylvania, 19013, United States"
"Taylor Hospital",39.8776876274655,-75.3204629853785,"Taylor Hospital, 175, East Chester Pike, Leedom Estates, Ridley Park, Delaware County, Pennsylvania, 19078, United States"
"Mercy Fitzgerald Hospital",39.9275632977837,-75.2681075441805,"Mercy Fitzgerald Hospital, 1500, South Lansdowne Avenue, Upper Darby, Delaware County, Pennsylvania, 19023, United States"
"Roxborough Memorial Hospital",40.028945264699,-75.2093197442357,"Roxborough Memorial Hospital, 5800, Ridge Avenue, Roxborough, Philadelphia, Philadelphia County, Pennsylvania, 19128, United States"
"Kindred Hospital Philadelphia",40.0460336328174,-75.096970883488,"Kindred Hospital Philadelphia, 6129, Palmetto Street, Lawndale, Philadelphia, Philadelphia County, Pennsylvania, 19111, United States"
"Friends Hospital",40.0262585037903,-75.1025596679831,"Friends Hospital, 4641, Roosevelt Boulevard, Cedar Grove, Philadelphia, Philadelphia County, Pennsylvania, 19124, United States"
"Girard Medical Center",39.9717116010433,-75.149901931706,"Girard Medical Center, West Thompson Street, Harrison Plaza, Philadelphia, Philadelphia County, Pennsylvania, 19122, United States"
"Thomas Jefferson University Hospital",39.9493479424358,-75.1580148521142,"Thomas Jefferson University, South 9th Street, Bella Vista, Center City, Philadelphia, Philadelphia County, Pennsylvania, 19148, United States"
"Penn Presbyterian Medical Center",39.9585118366173,-75.1992141867492,"Penn Presbyterian Medical Center, 51, North 39th Street, Mantua, Philadelphia, Philadelphia County, Pennsylvania, 19104, United States"
"Punxsutawney Area Hospital",40.9611125143503,-78.9997173158468,"Punxsutawney Area Hospital, 81, Hillcrest Drive, Walston, Punxsutawney, Jefferson County, Pennsylvania, 15767, United States"
"Saint Luke's Palmerton Campus",40.80286268752,-75.6150748723724,"Saint Luke's Palmerton Campus, 135, Lafayette Avenue, Palmerton, Carbon County, Pennsylvania, 18071, United States"
"Saint Joseph Medical Center",40.3754636226691,-75.9781927632722,"Saint Joseph Medical Center, 2500, Bernville Road, West Reading, Berks County, Pennsylvania, 19605, United States"
"UPMC Kane",41.6716334251336,-78.8178213139886,"UPMC Kane, 4372, Grand Army of the Republic Highway, Kane, McKean County, Pennsylvania, 16735, United States"
"Conemaugh Miners Medical Center",40.6580075717329,-78.7052735483717,"Conemaugh Miners Medical Center, 290, Haida Avenue, Hastings, Cambria County, Pennsylvania, 16646, United States"
"Lehigh Valley Hospital",40.5655744678796,-75.5232219816498,"Lehigh Valley Hospital, 1200, South Cedar Crest Boulevard, Allentown, Lehigh County, Pennsylvania, 18105, United States"
"UPMC Horizon — Greenville",41.4118531701066,-80.3720995635477,"UPMC Horizon — Greenville, 110, North Main Street, Greenville, Mercer County, Pennsylvania, 16125, United States"
"Highlands Hospital",40.0228964776836,-79.5861561249519,"Highlands Hospital, 401, East Murphy Avenue, North Manor, Connellsville, Fayette County, Pennsylvania, 15425, United States"
"Saint Luke's Gnaden Huetten Campus",40.8332478303773,-75.7269224957465,"Saint Luke's Gnaden Huetten Campus, 211, North 12th Street, Lehighton, Carbon County, Pennsylvania, 18235, United States"
"St. Luke’s Sacred Heart Campus",40.6078429066731,-75.468899926651,"St. Luke’s Sacred Heart Campus, 421, West Chew Street, Center City, Allentown, Lehigh County, Pennsylvania, 18102, United States"
"Hanover Hospital",39.8086481325434,-76.9828270091348,"Hanover Hospital, 300, Highland Avenue, Hanover, York County, Pennsylvania, 17331, United States"
"Guthrie Robert Packer Hospital, Towanda Campus",41.7840018148284,-76.4479095617153,"Guthrie Robert Packer Hospital, Towanda Campus, 91, Hospital Drive, North Towanda, North Towanda Township, Bradford County, Pennsylvania, 18848, United States"
"Forest Health Medical Center",40.1810645133351,-74.8851095490661,"Barix Clinics, 280, Middletown Boulevard, Langhorne Gardens, Middletown Township, Bucks County, Pennsylvania, 19047, United States"
"Edgewood Surgical Hospital",41.3306906220834,-80.4183529891792,"Edgewood Surgical Hospital, 235, Edgewood Drive, Transfer, Pymatuning Township, Mercer County, Pennsylvania, 16154, United States"
"Coordinated Health Orthopedic Hospital",40.6728875206184,-75.3655637345109,"Coordinated Health Orthopedic Hospital, 2310, Highland Avenue, Bethlehem Township, Northampton County, Pennsylvania, 18020, United States"
"Surgical Institute of Reading",40.3585494900032,-75.9879771256985,"Surgical Institute of Reading, 2752, Century Boulevard, Spring Ridge, Wyomissing, Berks County, Pennsylvania, 19610, United States"
"Rothman Orthopaedic Specialty Hospital",40.113128404644,-74.9627469431477,"Rothman Orthopaedic Specialty Hospital, 3300, Tillman Drive, Nottingham, Bensalem Township, Bucks County, Pennsylvania, 19020, United States"
"Physicians Care Surgical Hospital",40.2160985330331,-75.5533110802764,"Physicians Care Surgical Hospital, 454, Enterprise Drive, Barlow Heights, Limerick, Royersford, Montgomery County, Pennsylvania, 19468, United States"
"OSS Orthopaedic Hospital",39.9169979704841,-76.6954932018244,"1855, Powder Mill Road, Spry, York Township, York County, Pennsylvania, 17402, United States"
"Fulton County Medical Center",39.9372747955743,-78.0071059779769,"Fulton County Medical Center, 214, Peach Orchard Road, McConnellsburg, Fulton County, Pennsylvania, 17233, United States"
"Bucktail Medical Center",41.3276677193041,-77.7365003351599,"Bucktail Medical Center, 1001, Pine Street, Renovo, South Renovo, Clinton County, Pennsylvania, 17764, United States"
"Penn Highlands Brookville",41.156319326076,-79.0935264347983,"Penn Highlands Brookville, 100, Hospital Road, Brookville, Jefferson County, Pennsylvania, 15825, United States"
"Grand View Health Sellersville Outpatient Center",40.3673371356604,-75.3296165942127,"Grand View Health Sellersville Outpatient Center, Lawn Avenue, Schlichter, West Rockhill, Bucks County, Pennsylvania, 18960, United States"
"Lehigh Valley Hospital - Pocono West",41.0355542640062,-75.3142025265245,"Lehigh Valley Hospital - Pocono West, 2544, PA 715, Tannersville, Pocono Township, Monroe County, Pennsylvania, 18372, United States"
"Crozer-Keystone Health",39.9753546940321,-75.3394243371333,"Crozer-Keystone Health, 30, Lawrence Road, Marple Township, Delaware County, Pennsylvania, 19007, United States"
"Hospital",40.0712231350223,-75.0884271820255,"Burholme Avenue, Philadelphia, Philadelphia County, Pennsylvania, 19111, United States"
"Mercy Special Care Hospital",41.1949838493525,-76.0040405075875,"Mercy Special Care Hospital, New Grant Street, Nanticoke, Luzerne County, Pennsylvania, 18634, United States"
"Hospital",40.0944455340631,-75.031453822799,"Einstein Center One, Bustleton Avenue, Pauls Run, Far Northeast Philadelphia, Philadelphia, Philadelphia County, Pennsylvania, 19115, United States"
"Hospital",41.1166683981811,-78.748475991606,"Sunflower Drive Circle, DuBois, Clearfield County, Pennsylvania, 15801, United States"
"Lancaster Behavorial Health Hospital",40.0493188891481,-76.3144207611523,"Lancaster Behavorial Health Hospital, 333, Harrisburg Avenue, Stadium District, Lancaster, Lancaster County, Pennsylvania, 17603, United States"
"Clarion Psychiatric Center",41.1938606695329,-79.3976718501109,"Clarion Psychiatric Center, Hospital Drive, Monroe Township, Clarion County, Pennsylvania, 16214, United States"
"The Meadows Behavioral Health Treatment Facility",40.8113537171623,-77.711806068622,"The Meadows Behavioral Health Treatment Facility, Old Whity Lane, The Meadows Behavioral Health Treatment Facility, Potter Township, Centre County, Pennsylvania, 16828, United States"
"Roxbury Treatment Center",40.0556221434514,-77.5374328139628,"Roxbury Treatment Center, Clifton Road, Southampton Township, Franklin County, Pennsylvania, 17257, United States"
"Foundations Behavioral Health",40.3012603728692,-75.1557517095074,"Foundations Behavioral Health, South Circle Drive, Doylestown Township, Bucks County, Pennsylvania, 18923, United States"
"Brooke Glen Behavioral Hospital: Demp Neal MD",40.1344921028044,-75.216155816737,"Brooke Glen Behavioral Hospital, 7170, Lafayette Avenue, Whitemarsh Township, Montgomery County, Pennsylvania, 19034, United States"
"Universal Health Services, Inc.",40.0783091199467,-75.3694157611125,"Universal Health Services, Inc., South Gulph Road, Gulph Mills Village, King of Prussia, Upper Merion Township, Montgomery County, Pennsylvania, 19406, United States"
"Fairmount Behavioral Health System",40.0430127325156,-75.221357372299,"Fairmount Behavioral Health System, 561, Fairthorne Street, Upper Roxborough, Philadelphia, Philadelphia County, Pennsylvania, 19128, United States"
"KeyStone Center",39.8658131227138,-75.3608078350919,"KeyStone Center, Chestnut Street, Chester, Delaware County, Pennsylvania, 19013, United States"
"St. Luke's Upper Bucks Campus",40.4445793310911,-75.3744778120492,"St. Luke's Upper Bucks Campus, Portzer Road, Milford, Bucks County, Pennsylvania, 18951, United States"
"St. Luke's Hospital Allentown",40.5956530133223,-75.4931702680812,"1736, Hamilton Street, West Walnut, Union Terrace/West Walnut, Allentown, Lehigh County, Pennsylvania, 18104, United States"
"Tyler Memorial Hospital",41.577934766806,-75.969194218782,"Tyler Memorial Hospital, 5950, Roosevelt Highway, Tunkhannock Township, Wyoming County, Pennsylvania, 18657, United States"
"Veteran Affairs Butler Healthcare Center Hospital",40.873117478782,-79.9447251063051,"Veteran Affairs Butler Healthcare Center Hospital, Rural Drive, Butler Township, Butler County, Pennsylvania, 16001, United States"
"Belmont Behavioral Hospital",39.9997643092615,-75.2146637601205,"Belmont Behavioral Hospital, Ford Road, Pencoyd, Wynnefield Heights, Philadelphia, Philadelphia County, Pennsylvania, 19131, United States"
"The Germantown Hospital and Medical Center",40.0394694080309,-75.1594843121186,"La Salle University, North Norwood Street, Somerville, Philadelphia, Philadelphia County, Pennsylvania, 19138, United States"
"Saint Christopher's Hospital for Children",40.0062701174752,-75.1254333160959,"Saint Christopher's Hospital for Children, 160, East Erie Avenue, Franklinville, Philadelphia, Philadelphia County, Pennsylvania, 19134, United States"
"Hahnemann University Hospital",39.9570539978612,-75.163511230841,"Drexel University - Center City Campus, Race Street, Fashion District Philadelphia, Center City, Philadelphia, Philadelphia County, Pennsylvania, 19103, United States"
"Erie Veterans Medical Center",42.1020854922603,-80.0633097099862,"Erie Veterans Medical Center, 135, East 38th Street, Marvintown, Erie, Erie County, Pennsylvania, 16504, United States"
"Corry Memorial Hospital",41.93635506929,-79.61282179287,"Corry Memorial Hospital, 965, Shamrock Lane, Corry, Erie County, Pennsylvania, 16407, United States"
"Shriners Hospitals for Children",42.1130170611293,-80.1198535058279,"Shriners Hospitals for Children, 1645, West 8th Street, Greater Kahkwa, Dock Junction, Erie, Erie County, Pennsylvania, 16505, United States"
"AHN Brentwood Neighborhood Hospital",40.3760605260462,-79.9848513522402,"AHN Brentwood Neighborhood Hospital, 3290, Clairton Boulevard, Brentwood, Allegheny County, Pennsylvania, 15227, United States"
"Warren State Hospital",41.8796896527951,-79.1464369872102,"Warren State Hospital, 33, Main Drive, North Warren, Conewango Township, Warren County, Pennsylvania, 16365, United States"
"Millcreek Community Hospital",42.0736300880894,-80.0917936221667,"Millcreek Community Hospital, 5515, Peach Street, Orchard Grove, Winchester, Kearsarge, Millcreek Township, Erie County, Pennsylvania, 16509, United States"
"Saint Vincent Hospital",42.111411169839,-80.0796545078828,"232, West 25th Street, Little Italy, Federal Hill, Erie, Erie County, Pennsylvania, 16544, United States"
"Lancaster EMS",40.0356334072727,-76.2542713477807,"Lancaster EMS, 1829, Lincoln Highway East, Eastland Hills, East Lampeter Township, Lancaster County, Pennsylvania, 17602, United States"
"Geisinger Holy Spirit Primary Care",40.2889908004849,-76.9455887494435,"First National Bank, 310, East Penn Drive, Penn Valley, East Pennsboro Township, Cumberland County, Pennsylvania, 17025, United States"
"Plant Medical",40.3957058517236,-79.8642377211887,"Plant Medical, 11th Street, Braddock, Allegheny County, Pennsylvania, 15104, United States"
"Penn State Health Hampden Medical Center",40.2923143685958,-76.9852254039964,"Penn State Health Hampden Medical Center, 2200, Good Hope Road, Pinehurst, Hampden Township, Cumberland County, Pennsylvania, 17025, United States"
"Hospital",40.7821486489745,-77.8862745118789,"Old Gatesburg Road, Ferguson Township, Centre County, Pennsylvania, 16804, United States"
"Penn State Health Lancaster Medical Center",40.0825534784659,-76.3841083744787,"Penn State Health Lancaster Medical Center, 2160, State Road, Bamford, East Hempfield Township, Lancaster County, Pennsylvania, 17601, United States"
"AHN McCandless Neighborhood Hospital",40.5680476611896,-80.0253585048549,"AHN McCandless Neighborhood Hospital, 8950, Duncan Avenue, McCandless Crossing, Pittsburgh, Allegheny County, Pennsylvania, 15237, United States"
"St Luke's Hospital - Carbon Campus",40.8443776920938,-75.6720699949944,"St Luke's Hospital - Carbon Campus, 500, Saint Luke's Drive, Harrity, Lehighton, Carbon County, Pennsylvania, 18235, United States"
"Lehigh Valley Hospital - Carbon",40.8103974714967,-75.7478434487769,"Lehigh Valley Hospital - Carbon, 2128, Blakeslee Boulevard Drive East, Lehighton, Carbon County, Pennsylvania, 18235, United States"
"Select Specialty Hospital",42.1228945763422,-80.0877152712216,"Select Specialty Hospital, 252, West 11th Street, Downtown Erie, Erie, Erie County, Pennsylvania, 16501, United States"
"UPMC Hamot",42.1338326851959,-80.0867836630063,"UPMC Hamot, 201, State Street, Erie, Erie County, Pennsylvania, 16550, United States"
"St. Mary Rehabilitation Hospital",40.2006695494927,-74.9319928526377,"Davis Drive, Middletown Township, Bucks County, Pennsylvania, 19840, United States"
"Med Express",40.2742617193768,-80.1271453313914,"Med Express, Washington Road, Donaldsons Crossroads, Peters Township, Washington County, Pennsylvania, 15055, United States"
"Hospital",40.6883110543704,-75.249429099346,"LVHN Health Center at Easton, 2401, Northampton Street, West Easton, Northampton County, Pennsylvania, 18045, United States"
"Hospital",40.6980165421158,-75.2822572196761,"Hecktown Road, Lower Nazareth Township, Northampton County, Pennsylvania, 18045, United States"
"Hospital",40.7126553100325,-75.279659737435,"Corriere Road, Palmer View, Palmer Township, Northampton County, Pennsylvania, 18045, United States"
"Giant Eagle Market District Pharmacy",40.632725555967,-80.0542179645146,"Giant Eagle Market District Pharmacy, 155, Village Run Road, Wexford, Pine Township, Allegheny County, Pennsylvania, 15090, United States"
"Hospital",40.2650505959017,-76.8653336490915,"Mayflower Street, Mount Pleasant, Allison Hill, Harrisburg, Dauphin County, Pennsylvania, 17105, United States"
"Fern Hill Medical Campus",39.980598116338,-75.59206763788,"915, Old Fern Hill Road, Fern Hill, West Goshen, West Goshen Township, Chester County, Pennsylvania, 19380, United States"
"St. Luke's Care Now - Macungie",40.5243126728626,-75.5886863635428,"St. Luke's Care Now - Macungie, 2550, PA 100, Spring Creek, Macungie, Lehigh County, Pennsylvania, 18062, United States"
"Sharon Regional Health System",41.2322075519911,-80.4963260358484,"Sharon Regional Health System, 740, East State Street, Sharon, Mercer County, Pennsylvania, 16146, United States"
"Penn State Health Holy Spirit Medical Center",40.2532860251828,-76.9219844235956,"Penn State Health Holy Spirit Medical Center, 503, North 21st Street, Camp Hill, Cumberland County, Pennsylvania, 17011, United States"
"Hospital",40.4428354265412,-79.2248709849316,"Club Drive, Burrell Township, Indiana County, Pennsylvania, 15717, United States"
"Grand View Health Cardiology Buxmont",40.3741519488339,-75.2062346879841,"Grand View Health Cardiology Buxmont, 145, Doylestown Pike, Dublin, Bucks County, Pennsylvania, 18917, United States"
"Lehigh Valley Hospital",41.4532140944624,-75.6322165417112,"Lehigh Valley Hospital, Commercial Street, Dickson City, Lackawanna County, Pennsylvania, 18519, United States"
"VA Medical Center",41.3515872352181,-79.7213522515569,"VA Medical Center, US Highway 322, Egypt Corners, Cranberry, Cranberry Township, Venango County, Pennsylvania, 16346, United States"
"Encompass Health Rehabilitation",40.577345571926,-80.202626510769,"Encompass Health Rehabilitation, 351, Campmeeting Road, Leet Township, Allegheny County, Pennsylvania, 15056, United States"
"Western Psychiatric Institute & Clinic of UPMC",40.4435492,-79.959846,"Western Psychiatric Institute & Clinic of UPMC, 3811, O'Hara Street, North Oakland, Pittsburgh, Allegheny County, Pennsylvania, 15213, United States"
"Chicora Medical Center",40.9392303,-79.7483834,"Chicora Medical Center, Medical Center Road, Donegal Township, Butler County, Pennsylvania, 16025, United States"
"Wills Eye Hospital",39.9480201,-75.1550189,"Thomas Jefferson University, South 9th Street, Bella Vista, Center City, Philadelphia, Philadelphia County, Pennsylvania, 19148, United States"
"KidsPeace Berks Campus",40.4032315,-75.9222187,"KidsPeace Berks Campus, 704, Hay Road, Temple, Muhlenberg Township, Berks County, Pennsylvania, 19560, United States"
"Montgomery County Emergency Service - Crisis Services",40.1367124,-75.3521696,"Montgomery County Emergency Service - Crisis Services, 50, Beech Drive, Norristown, Montgomery County, Pennsylvania, 19401, United States"
"Mid-State Occupational Health",41.2266111,-77.0599495,"Mid-State Occupational Health, Reach Road, Williamsport, Lycoming County, Pennsylvania, 17701, United States"
"Shipley Health Lodge",40.0975148,-77.0972028,"Shipley Health Lodge, 400, Tuckahoe Road, Dillsburg, York County, Pennsylvania, 17091, United States"
"WellSpan Surgery and Rehabilitation Hospital",39.9261765,-76.7189365,"WellSpan Surgery and Rehabilitation Hospital, 55, Monument Road, Chanticleer, York Township, York County, Pennsylvania, 17403, United States"
"Kindred Hospital South Philadelphia",39.9265511,-75.1702417,"Kindred Hospital South Philadelphia, 1930, South Broad Street, South Philadelphia, Philadelphia, Philadelphia County, Pennsylvania, 19145, United States"
"Easton Hospital",40.6872072,-75.2425379,"Easton Hospital, 250, South 21st Street, West Easton, Northampton County, Pennsylvania, 18042, United States"
"Kensington Hospital",39.9817616,-75.1346364,"Kensington Hospital, 136, Diamond Street, Hartranft, Philadelphia, Philadelphia County, Pennsylvania, 19122, United States"
"Barix Clinics",40.1810128,-74.8850548,"Barix Clinics, 280, Middletown Boulevard, Langhorne Gardens, Middletown Township, Bucks County, Pennsylvania, 19047, United States"
"Advanced Surgical Hospital",40.1564523,-80.2789503,"Advanced Surgical Hospital, 100, Trich Drive, Washington Crown Center, Franklin Farms, North Franklin Township, Washington County, Pennsylvania, 15301, United States"
"Penn Medicine Radnor",40.0425018,-75.3582152,"Penn Medicine Radnor, 251, North Radnor Chester Road, Upton, Wayne, Radnor Township, Delaware County, Pennsylvania, 19087, United States"
"Gettysburg Hospital ER Entrance",39.8251231,-77.2347136,"Gettysburg Hospital ER Entrance, 147, Gettys Street, Gettysburg, Adams County, Pennsylvania, 17325, United States"
"Align Pregnancy Services Ephrata",40.179812,-76.1793883,"Align Pregnancy Services Ephrata, 112, West Main Street, Ephrata, Lancaster County, Pennsylvania, 17522, United States"
"John P. Murtha Cancer Center",40.3217464,-78.9216592,"John P. Murtha Cancer Center, 337, Somerset Street, Kernville, Conemaugh, Johnstown, Cambria County, Pennsylvania, 15901, United States"
"West Chester Cardiology",39.9695822,-75.5995641,"West Chester Cardiology, 531, Maple Avenue, West Goshen Township, Chester County, Pennsylvania, 19380, United States"
"Penn Foundation",40.3641903,-75.3253395,"Penn Foundation, Lawn Avenue, West Rockhill, Bucks County, Pennsylvania, 18960, United States"
"UPMC Hillman Cancer Center",42.1037403,-80.1370193,"UPMC Hillman Cancer Center, 2500, West 12th Street, Erie, Erie County, Pennsylvania, 16505, United States"
"Sterrettania Medical Center",42.071204,-80.1454589,"Sterrettania Medical Center, 4000, Sterrettania Road, Westmoreland, Westminster, Millcreek Township, Erie County, Pennsylvania, 16506, United States"
"st. lukes",40.5626663,-76.0037514,"Starbucks, 5, Dave's Way, Hamburg, Berks County, Pennsylvania, 19526, United States"
"AHN Cancer Institute",42.1101282,-80.0806444,"AHN Cancer Institute, 2508, Myrtle Street, Little Italy, Federal Hill, Erie, Erie County, Pennsylvania, 16544, United States"
"Saint Vincent Surgery Center",42.1106922,-80.0809926,"Saint Vincent Surgery Center, 312, West 25th Street, Little Italy, Federal Hill, Erie, Erie County, Pennsylvania, 16544, United States"
"Lehigh Valley Hospital - Carbon",40.810354,-75.7478992,"Lehigh Valley Hospital - Carbon, 2128, Blakeslee Boulevard Drive East, Lehighton, Carbon County, Pennsylvania, 18235, United States"
"St Luke's Hospital - Lehighton Campus",40.8330947,-75.725971,"St Luke's Hospital - Lehighton Campus, 211, North 12th Street, Lehighton, Carbon County, Pennsylvania, 18235, United States"
"The Summit Nursing & Rehabilitation Center",40.833943,-75.7257376,"The Summit Nursing & Rehabilitation Center, 211, North 12th Street, Lehighton, Carbon County, Pennsylvania, 18235, United States"
"St Luke's Hospital - Carbon Campus",40.8449968,-75.6723265,"St Luke's Hospital - Carbon Campus, 500, Saint Luke's Drive, Harrity, Lehighton, Carbon County, Pennsylvania, 18235, United States"
"Heritage Valley",40.712052,-80.3219701,"Heritage Valley, Dutch Ridge Road, Brighton Township, Beaver County, Pennsylvania, 15009, United States"
"Crichton Rehabilitation Center",40.3263871,-78.9212974,"Crichton Rehabilitation Center, 320, Main Street, Prospect Homes, Kernville, Conemaugh, Johnstown, Cambria County, Pennsylvania, 15901, United States"
"Lehigh Valley Hospital-Muhlenberg",40.657591,-75.420109,"Lehigh Valley Hospital-Muhlenberg, 2545, Schoenersville Road, West Bethlehem, Bethlehem, Lehigh County, Pennsylvania, 18017, United States"
"James E Van Zandt VA Medical Center",40.4884951,-78.3957546,"James E Van Zandt VA Medical Center, 2907, Pleasant Valley Boulevard, Altoona, Blair County, Pennsylvania, 16602, United States"
"Wilkes - Barre VA Medical Center",41.2481043,-75.8359693,"Wilkes - Barre VA Medical Center, 1111, East End Boulevard, Boulevard Manor, Wilkes-Barre, Luzerne County, Pennsylvania, 18711, United States"
"Devereux Children's Behavioral Health Institute",40.0083761,-75.5091871,"Devereux Children's Behavioral Health Institute, 655, Sugartown Road, Raintree Condominiums, Sugartown, Malvern, Chester County, Pennsylvania, 19355, United States"
"AHN Hempfield Neighborhood Hospital",40.3108973,-79.6001522,"AHN Hempfield Neighborhood Hospital, 6321, Lincoln Highway, Southwest Greensburg, Westmoreland County, Pennsylvania, 15601, United States"
"The Good Shepherd Rehabilitation Hospital",40.5926085,-75.4638554,"The Good Shepherd Rehabilitation Hospital, 850, South 5th Street, South Side, Allentown, Lehigh County, Pennsylvania, 18103, United States"
"Curahealth Pittsburgh",40.438549,-80.2088,"Curahealth Pittsburgh, 7777, Penn-Lincoln Parkway West, Fayetteville, Oakdale, Allegheny County, Pennsylvania, 15071, United States"
"Saint John Vianney Center",40.012309,-75.683505,"Saint John Vianney Center, 151, Woodbine Road, Downingtown, Chester County, Pennsylvania, 19335, United States"
"Penn State Health Rehabilitation Hospital",40.2729976,-76.6869283,"Penn State Health Rehabilitation Hospital, 1135, Old West Chocolate Avenue, Hummelstown, Dauphin County, Pennsylvania, 17036, United States"
"Kidspeace Orchard Hills Campus",40.6487751,-75.6134659,"Kidspeace Orchard Hills Campus, 5300, Kidspeace Drive, North Whitehall Township, Lehigh County, Pennsylvania, 18069, United States"
"Encompass Health Rehabilitation Hospital Of Nittany Valley",40.860283,-77.755767,"Encompass Health Rehabilitation Hospital Of Nittany Valley, 550, West College Avenue, Peru, Benner Township, Centre County, Pennsylvania, 16833, United States"
"Allied Services Institute Of Rehabilitation Medicine",41.4545112,-75.67772,"Allied Services Institute Of Rehabilitation Medicine, 475, Morgan Highway, Scranton, Lackawanna County, Pennsylvania, 18508, United States"
"Geisinger Saint Luke's Hospital",40.641724,-76.0920023,"Geisinger Saint Luke's Hospital, 100, Paramount Boulevard, Orwigsburg, Schuylkill County, Pennsylvania, 17961, United States"
"Haven Behavioral Hospital Of Philadelphia",40.0118211,-75.1841682,"Haven Behavioral Hospital Of Philadelphia, 3300, Henry Avenue, East Falls, Philadelphia, Philadelphia County, Pennsylvania, 19129, United States"
"Encompass Health Rehabilitation Hospital Of Altoona",40.496464,-78.391534,"Encompass Health Rehabilitation Hospital Of Altoona, 2005, Valley View Boulevard, Pleasant Valley, Altoona, Blair County, Pennsylvania, 16602, United States"
"Southwood Psychiatric Hospital",40.321204,-80.112717,"Southwood Psychiatric Hospital, 2575, Boyce Plaza Road, Boyce, Pittsburgh, Allegheny County, Pennsylvania, 25241, United States"
"Encompass Health Rehabilitation Hospital Of Harmarville",40.556896,-79.866065,"Encompass Health Rehabilitation Hospital Of Harmarville, 320, Guys Run Road, East Pittsburgh, Harmar Township, Allegheny County, Pennsylvania, 15238, United States"
"PAM Specialty Hospital Of Rocky Mount",40.2839753,-76.9840177,"PAM Specialty Hospital Of Rocky Mount, 1828, Good Hope Road, Pinehurst, Hampden Township, Cumberland County, Pennsylvania, 17025, United States"
"Encompass Health Rehabilitation Hospital Of Mechanicsburg",40.211206,-76.973968,"Encompass Health Rehabilitation Hospital Of Mechanicsburg, 175, Lancaster Boulevard, Mechanicsburg, Cumberland County, Pennsylvania, 17055, United States"
"LVH Coordinated Allentown",40.6127543,-75.5292329,"LVH Coordinated Allentown, 1503, North 29th Street, Woodlawn, Allentown, Lehigh County, Pennsylvania, 18104, United States"
"Haven Behavioral Hospital Of Eastern Pennsylvania",40.3380043,-75.9253894,"Haven Behavioral Hospital Of Eastern Pennsylvania, 145, North 6th Street, Reading, Berks County, Pennsylvania, 19601, United States"
"John Heinz Institute Of Rehabilitation Medicine",41.2461525,-75.854379,"John Heinz Institute Of Rehabilitation Medicine, 150, Mundy Street, East End, Wilkes-Barre, Luzerne County, Pennsylvania, 18702, United States"
"Evangelical Urgent Care",40.97702,-76.8881052,"Evangelical Urgent Care, Westbranch Highway, Kelly Township, Union County, Pennsylvania, 17837, United States"
"VA Medical Center",41.0173477,-76.4853669,"VA Medical Center, 225, Columbia Mall Drive, Bloomsburg, Columbia County, Pennsylvania, 17815, United States"
